{"type": "FeatureCollection", "features": [ {"type": "Feature", "properties": {"norad_id": 46449, "name": "FENGYUN 1C DEB", "group": "fengyun-1c-debris", "lat": 43.06136727181071, "lon": -154.76412936008285, "alt_km": 946.4524456963936, "timestamp": "2025-12-08T13:49:32.083372+00:00", "meta": {"OBJECT_NAME": "FENGYUN 1C DEB", "OBJECT_ID": "1999-025EZE", "EPOCH": "2025-11-27T19:57:02.428704", "MEAN_MOTION": 14.19021773, "ECCENTRICITY": 0.02029501, "INCLINATION": 98.6463, "RA_OF_ASC_NODE": 6.5721, "ARG_OF_PERICENTER": 314.0231, "MEAN_ANOMALY": 44.4375, "EPHEMERIS_TYPE": 0, "CLASSIFICATION_TYPE": "U", "NORAD_CAT_ID": 46449, "ELEMENT_SET_NO": 999, "REV_AT_EPOCH": 57425, "BSTAR": 0.00050383916, "MEAN_MOTION_DOT": 1.244e-05, "MEAN_MOTION_DDOT": 0}, "tle": {"line1": "1 46449U 99025EZE 25331.83127811  .00001244  00000+0  50384-3 0  9990", "line2": "2 46449  98.6463   6.5721 0202950 314.0231  44.4375 14.19021773574253"}}, "geometry": {"type": "Point", "coordinates": [-154.76412936008285, 43.06136727181071]}}, {"type": "Feature", "properties": {"norad_id": 46450, "name": "FENGYUN 1C DEB", "group": "fengyun-1c-debris", "lat": 7.759635740369043, "lon": 20.79401251362883, "alt_km": 902.2590806700782, "timestamp": "2025-12-08T13:49:32.083382+00:00", "meta": {"OBJECT_NAME": "FENGYUN 1C DEB", "OBJECT_ID": "1999-025EZF", "EPOCH": "2025-12-05T08:02:04.531488", "MEAN_MOTION": 14.03487507, "ECCENTRICITY": 0.0182173, "INCLINATION": 98.079, "RA_OF_ASC_NODE": 196.8025, "ARG_OF_PERICENTER": 82.0832, "MEAN_ANOMALY": 280.097, "EPHEMERIS_TYPE": 0, "CLASSIFICATION_TYPE": "U", "NORAD_CAT_ID": 46450, "ELEMENT_SET_NO": 999, "REV_AT_EPOCH": 61015, "BSTAR": 0.0037253219, "MEAN_MOTION_DOT": 6.729e-05, "MEAN_MOTION_DDOT": 0}, "tle": {"line1": "1 46450U 99025EZF 25339.33477467  .00006729  00000+0  37253-2 0  9992", "line2": "2 46450  98.0790 196.8025 0182173  82.0832 280.0970 14.03487507610158"}}, "geometry": {"type": "Point", "coordinates": [20.79401251362883, 7.759635740369043]}}, {"type": "Feature", "properties": {"norad_id": 46451, "name": "FENGYUN 1C DEB", "group": "fengyun-1c-debris", "lat": -68.41205408182321, "lon": 160.85558157911444, "alt_km": 754.12905315025, "timestamp": "2025-12-08T13:49:32.083393+00:00", "meta": {"OBJECT_NAME": "FENGYUN 1C DEB", "OBJECT_ID": "1999-025EZG", "EPOCH": "2025-12-06T08:19:16.866336", "MEAN_MOTION": 14.20265955, "ECCENTRICITY": 0.01713541, "INCLINATION": 98.1565, "RA_OF_ASC_NODE": 0.0492, "ARG_OF_PERICENTER": 204.5085, "MEAN_ANOMALY": 171.6442, "EPHEMERIS_TYPE": 0, "CLASSIFICATION_TYPE": "U", "NORAD_CAT_ID": 46451, "ELEMENT_SET_NO": 999, "REV_AT_EPOCH": 56916, "BSTAR": 0.0047466269, "MEAN_MOTION_DOT": 0.00011737, "MEAN_MOTION_DDOT": 0}, "tle": {"line1": "1 46451U 99025EZG 25340.34672299  .00011737  00000+0  47466-2 0  9998", "line2": "2 46451  98.1565   0.0492 0171354 204.5085 171.6442 14.20265955569167"}}, "geometry": {"type": "Point", "coordinates": [160.85558157911444, -68.41205408182321]}}, {"type": "Feature", "properties": {"norad_id": 46468, "name": "FENGYUN 1C DEB", "group": "fengyun-1c-debris", "lat": 60.748150428126245, "lon": 54.0888691695773, "alt_km": 836.2645573302552, "timestamp": "2025-12-08T13:49:32.083403+00:00", "meta": {"OBJECT_NAME": "FENGYUN 1C DEB", "OBJECT_ID": "1999-025EZK", "EPOCH": "2025-12-05T11:40:56.057088", "MEAN_MOTION": 14.24624846, "ECCENTRICITY": 0.00454022, "INCLINATION": 98.8836, "RA_OF_ASC_NODE": 67.1806, "ARG_OF_PERICENTER": 250.6717, "MEAN_ANOMALY": 176.0596, "EPHEMERIS_TYPE": 0, "CLASSIFICATION_TYPE": "U", "NORAD_CAT_ID": 46468, "ELEMENT_SET_NO": 999, "REV_AT_EPOCH": 73713, "BSTAR": 0.0036232179, "MEAN_MOTION_DOT": 8.473e-05, "MEAN_MOTION_DDOT": 0}, "tle": {"line1": "1 46468U 99025EZK 25339.48675992  .00008473  00000+0  36232-2 0  9994", "line2": "2 46468  98.8836  67.1806 0045402 250.6717 176.0596 14.24624846737139"}}, "geometry": {"type": "Point", "coordinates": [54.0888691695773, 60.748150428126245]}}, {"type": "Feature", "properties": {"norad_id": 46986, "name": "FENGYUN 1C DEB", "group": "fengyun-1c-debris", "lat": -80.13524768110453, "lon": 130.03108885546396, "alt_km": 685.1136062353835, "timestamp": "2025-12-08T13:49:32.083413+00:00", "meta": {"OBJECT_NAME": "FENGYUN 1C DEB", "OBJECT_ID": "1999-025EZL", "EPOCH": "2025-12-01T08:01:27.390720", "MEAN_MOTION": 14.47112781, "ECCENTRICITY": 0.01038428, "INCLINATION": 98.2357, "RA_OF_ASC_NODE": 359.3803, "ARG_OF_PERICENTER": 247.048, "MEAN_ANOMALY": 111.973, "EPHEMERIS_TYPE": 0, "CLASSIFICATION_TYPE": "U", "NORAD_CAT_ID": 46986, "ELEMENT_SET_NO": 999, "REV_AT_EPOCH": 63235, "BSTAR": 0.00048896767, "MEAN_MOTION_DOT": 1.859e-05, "MEAN_MOTION_DDOT": 0}, "tle": {"line1": "1 46986U 99025EZL 25335.33434480  .00001859  00000+0  48897-3 0  9996", "line2": "2 46986  98.2357 359.3803 0103842 247.0480 111.9730 14.47112781632350"}}, "geometry": {"type": "Point", "coordinates": [130.03108885546396, -80.13524768110453]}}, {"type": "Feature", "properties": {"norad_id": 46989, "name": "FENGYUN 1C DEB", "group": "fengyun-1c-debris", "lat": -71.74525528605818, "lon": 174.8711803952473, "alt_km": 891.128909758655, "timestamp": "2025-12-08T13:49:32.083423+00:00", "meta": {"OBJECT_NAME": "FENGYUN 1C DEB", "OBJECT_ID": "1999-025EZP", "EPOCH": "2025-12-01T09:56:49.877952", "MEAN_MOTION": 13.7915922, "ECCENTRICITY": 0.02374727, "INCLINATION": 99.5096, "RA_OF_ASC_NODE": 137.1371, "ARG_OF_PERICENTER": 7.3744, "MEAN_ANOMALY": 21.4435, "EPHEMERIS_TYPE": 0, "CLASSIFICATION_TYPE": "U", "NORAD_CAT_ID": 46989, "ELEMENT_SET_NO": 999, "REV_AT_EPOCH": 70886, "BSTAR": 0.0040160764, "MEAN_MOTION_DOT": 5.034e-05, "MEAN_MOTION_DDOT": 0}, "tle": {"line1": "1 46989U 99025EZP 25335.41446618  .00005034  00000+0  40161-2 0  9998", "line2": "2 46989  99.5096 137.1371 0237472   7.3744  21.4435 13.79159220708866"}}, "geometry": {"type": "Point", "coordinates": [174.8711803952473, -71.74525528605818]}}, {"type": "Feature", "properties": {"norad_id": 46990, "name": "FENGYUN 1C DEB", "group": "fengyun-1c-debris", "lat": 66.05254262893801, "lon": 25.97236488072421, "alt_km": 604.8632065403972, "timestamp": "2025-12-08T13:49:32.083434+00:00", "meta": {"OBJECT_NAME": "FENGYUN 1C DEB", "OBJECT_ID": "1999-025EZQ", "EPOCH": "2025-12-06T08:10:02.409024", "MEAN_MOTION": 14.23662061, "ECCENTRICITY": 0.03583683, "INCLINATION": 98.2315, "RA_OF_ASC_NODE": 184.8522, "ARG_OF_PERICENTER": 79.2421, "MEAN_ANOMALY": 98.3113, "EPHEMERIS_TYPE": 0, "CLASSIFICATION_TYPE": "U", "NORAD_CAT_ID": 46990, "ELEMENT_SET_NO": 999, "REV_AT_EPOCH": 8438, "BSTAR": 0.0037020871, "MEAN_MOTION_DOT": 0.00016467, "MEAN_MOTION_DDOT": 0}, "tle": {"line1": "1 46990U 99025EZQ 25340.34030566  .00016467  00000+0  37021-2 0  9992", "line2": "2 46990  98.2315 184.8522 0358368  79.2421  98.3113 14.23662061 84385"}}, "geometry": {"type": "Point", "coordinates": [25.97236488072421, 66.05254262893801]}}, {"type": "Feature", "properties": {"norad_id": 46992, "name": "FENGYUN 1C DEB", "group": "fengyun-1c-debris", "lat": 19.926648385952625, "lon": 152.69739270778564, "alt_km": 840.2038119215476, "timestamp": "2025-12-08T13:49:32.083444+00:00", "meta": {"OBJECT_NAME": "FENGYUN 1C DEB", "OBJECT_ID": "1999-025EZS", "EPOCH": "2025-12-08T04:29:35.695680", "MEAN_MOTION": 14.00689466, "ECCENTRICITY": 0.00720708, "INCLINATION": 98.8968, "RA_OF_ASC_NODE": 329.0636, "ARG_OF_PERICENTER": 173.2576, "MEAN_ANOMALY": 186.9576, "EPHEMERIS_TYPE": 0, "CLASSIFICATION_TYPE": "U", "NORAD_CAT_ID": 46992, "ELEMENT_SET_NO": 999, "REV_AT_EPOCH": 60893, "BSTAR": 0.00056328778, "MEAN_MOTION_DOT": 8.15e-06, "MEAN_MOTION_DDOT": 0}, "tle": {"line1": "1 46992U 99025EZS 25342.18721870  .00000815  00000+0  56329-3 0  9996", "line2": "2 46992  98.8968 329.0636 0072070 173.2576 186.9576 14.00689466608938"}}, "geometry": {"type": "Point", "coordinates": [152.69739270778564, 19.926648385952625]}}, {"type": "Feature", "properties": {"norad_id": 46993, "name": "FENGYUN 1C DEB", "group": "fengyun-1c-debris", "lat": 61.86047444291851, "lon": -61.90249325300566, "alt_km": 1184.561892955915, "timestamp": "2025-12-08T13:49:32.083455+00:00", "meta": {"OBJECT_NAME": "FENGYUN 1C DEB", "OBJECT_ID": "1999-025EZT", "EPOCH": "2025-12-07T12:59:14.154720", "MEAN_MOTION": 13.69140958, "ECCENTRICITY": 0.02624793, "INCLINATION": 98.7232, "RA_OF_ASC_NODE": 100.4775, "ARG_OF_PERICENTER": 313.2221, "MEAN_ANOMALY": 104.529, "EPHEMERIS_TYPE": 0, "CLASSIFICATION_TYPE": "U", "NORAD_CAT_ID": 46993, "ELEMENT_SET_NO": 999, "REV_AT_EPOCH": 60186, "BSTAR": 0.00065143345, "MEAN_MOTION_DOT": 6.78e-06, "MEAN_MOTION_DDOT": 0}, "tle": {"line1": "1 46993U 99025EZT 25341.54113605  .00000678  00000+0  65143-3 0  9998", "line2": "2 46993  98.7232 100.4775 0262479 313.2221 104.5290 13.69140958601860"}}, "geometry": {"type": "Point", "coordinates": [-61.90249325300566, 61.86047444291851]}}, {"type": "Feature", "properties": {"norad_id": 46995, "name": "FENGYUN 1C DEB", "group": "fengyun-1c-debris", "lat": -32.11427928601199, "lon": -120.52913866509644, "alt_km": 927.6981349925582, "timestamp": "2025-12-08T13:49:32.083465+00:00", "meta": {"OBJECT_NAME": "FENGYUN 1C DEB", "OBJECT_ID": "1999-025EZV", "EPOCH": "2025-12-08T04:09:42.058944", "MEAN_MOTION": 13.86298509, "ECCENTRICITY": 0.01910077, "INCLINATION": 98.5941, "RA_OF_ASC_NODE": 64.5473, "ARG_OF_PERICENTER": 130.6271, "MEAN_ANOMALY": 231.1675, "EPHEMERIS_TYPE": 0, "CLASSIFICATION_TYPE": "U", "NORAD_CAT_ID": 46995, "ELEMENT_SET_NO": 999, "REV_AT_EPOCH": 60405, "BSTAR": 0.0036530697, "MEAN_MOTION_DOT": 4.839e-05, "MEAN_MOTION_DDOT": 0}, "tle": {"line1": "1 46995U 99025EZV 25342.17340346  .00004839  00000+0  36531-2 0  9995", "line2": "2 46995  98.5941  64.5473 0191007 130.6271 231.1675 13.86298509604059"}}, "geometry": {"type": "Point", "coordinates": [-120.52913866509644, -32.11427928601199]}}]}